IRIDIUM 166             
1 43570U 18061B   25087.47419311  .00000112  00000+0  33069-4 0  9995
2 43570  86.3943 242.9425 0001715  96.0668 264.0723 14.34215996349511
IRIDIUM 158             
1 43571U 18061C   25086.67502786 -.00000267  00000+0 -10249-3 0  9993
2 43571  86.3945 243.2866 0001960  88.9629 271.1791 14.34216521349368
IRIDIUM 165             
1 43572U 18061D   25087.46784345  .00000100  00000+0  28471-4 0  9996
2 43572  86.3944 242.9924 0001997 100.3171 259.8250 14.34213942349503
IRIDIUM 155             
1 43573U 18061E   25087.42979557  .00000069  00000+0  17476-4 0  9991
2 43573  86.3942 242.8995 0001954  88.1650 271.9769 14.34217214349479
IRIDIUM 154             
1 43574U 18061F   25087.48053792  .00000338  00000+0  11369-3 0  9995
2 43574  86.3948 242.9900 0002131  94.5803 265.5636 14.34217895349525
IRIDIUM 163             
1 43575U 18061G   25086.83359388  .00000022  00000+0  76352-6 0  9990
2 43575  86.3940 243.1897 0002223  91.1129 269.0322 14.34217214349405
IRIDIUM 156             
1 43576U 18061H   25087.43613693  .00000773  00000+0  26907-3 0  9991
2 43576  86.3945 242.9449 0001764  86.9178 273.2220 14.34215661349471
IRIDIUM 164             
1 43577U 18061J   25086.85895839  .00000281  00000+0  93420-4 0  9990
2 43577  86.3947 243.2193 0001988 101.0262 259.1157 14.34214980349447
